{
  "type": "FeatureCollection",
  "features": [
    {
      "type": "Feature",
      "properties": {
        "norad_id": 35670,
        "name": "COSMOS 2251 DEB",
        "group": "cosmos-2251-debris",
        "lat": 40.62894282996923,
        "lon": -147.88143268228671,
        "alt_km": 599.4316639647232,
        "timestamp": "2025-12-21T14:40:48.315275+00:00",
        "meta_object_name": "COSMOS 2251 DEB",
        "meta_object_id": "1993-036APM",
        "meta_epoch": "2025-12-19T10:38:44.466144",
        "meta_mean_motion": 14.94072625,
        "meta_eccentricity": 0.0038179,
        "meta_inclination": 73.895,
        "meta_ra_of_asc_node": 50.8731,
        "meta_arg_of_pericenter": 9.8443,
        "meta_mean_anomaly": 350.3478,
        "meta_ephemeris_type": 0,
        "meta_classification_type": "U",
        "meta_norad_cat_id": 35670,
        "meta_element_set_no": 999,
        "meta_rev_at_epoch": 87827,
        "meta_bstar": 0.00080624,
        "meta_mean_motion_dot": 8.707e-05,
        "meta_mean_motion_ddot": 0,
        "tle_line1": "1 35670U 93036APM 25353.44357021  .00008707  00000+0  80624-3 0  9990",
        "tle_line2": "2 35670  73.8950  50.8731 0038179   9.8443 350.3478 14.94072625878277"
      },
      "geometry": {
        "type": "Point",
        "coordinates": [
          -147.88143268228671,
          40.62894282996923
        ]
      }
    },
    {
      "type": "Feature",
      "properties": {
        "norad_id": 35671,
        "name": "COSMOS 2251 DEB",
        "group": "cosmos-2251-debris",
        "lat": -17.271070177709415,
        "lon": -112.20456583670274,
        "alt_km": 712.0216446022569,
        "timestamp": "2025-12-21T14:40:48.315285+00:00",
        "meta_object_name": "COSMOS 2251 DEB",
        "meta_object_id": "1993-036APN",
        "meta_epoch": "2025-12-17T12:02:51.877248",
        "meta_mean_motion": 14.48356669,
        "meta_eccentricity": 0.00414327,
        "meta_inclination": 74.0178,
        "meta_ra_of_asc_node": 70.3857,
        "meta_arg_of_pericenter": 243.6268,
        "meta_mean_anomaly": 134.9759,
        "meta_ephemeris_type": 0,
        "meta_classification_type": "U",
        "meta_norad_cat_id": 35671,
        "meta_element_set_no": 999,
        "meta_rev_at_epoch": 86832,
        "meta_bstar": 0.00018080216,
        "meta_mean_motion_dot": 6.55e-06,
        "meta_mean_motion_ddot": 0,
        "tle_line1": "1 35671U 93036APN 25351.50198932  .00000655  00000+0  18080-3 0  9991",
        "tle_line2": "2 35671  74.0178  70.3857 0041432 243.6268 134.9759 14.48356669868323"
      },
      "geometry": {
        "type": "Point",
        "coordinates": [
          -112.20456583670274,
          -17.271070177709415
        ]
      }
    },
    {
      "type": "Feature",
      "properties": {
        "norad_id": 35674,
        "name": "COSMOS 2251 DEB",
        "group": "cosmos-2251-debris",
        "lat": -72.10471794771483,
        "lon": -177.9766987713392,
        "alt_km": 706.7314117194737,
        "timestamp": "2025-12-21T14:40:48.315295+00:00",
        "meta_object_name": "COSMOS 2251 DEB",
        "meta_object_id": "1993-036APR",
        "meta_epoch": "2025-12-17T07:06:57.455712",
        "meta_mean_motion": 14.54280117,
        "meta_eccentricity": 0.00961628,
        "meta_inclination": 74.0599,
        "meta_ra_of_asc_node": 307.9038,
        "meta_arg_of_pericenter": 351.6495,
        "meta_mean_anomaly": 8.3061,
        "meta_ephemeris_type": 0,
        "meta_classification_type": "U",
        "meta_norad_cat_id": 35674,
        "meta_element_set_no": 999,
        "meta_rev_at_epoch": 86177,
        "meta_bstar": 0.001519305,
        "meta_mean_motion_dot": 6.829e-05,
        "meta_mean_motion_ddot": 0,
        "tle_line1": "1 35674U 93036APR 25351.29649833  .00006829  00000+0  15193-2 0  9991",
        "tle_line2": "2 35674  74.0599 307.9038 0096162 351.6495   8.3061 14.54280117861778"
      },
      "geometry": {
        "type": "Point",
        "coordinates": [
          -177.9766987713392,
          -72.10471794771483
        ]
      }
    },
    {
      "type": "Feature",
      "properties": {
        "norad_id": 35701,
        "name": "COSMOS 2251 DEB",
        "group": "cosmos-2251-debris",
        "lat": 20.932232884173636,
        "lon": -66.23359758248431,
        "alt_km": 1037.951143610706,
        "timestamp": "2025-12-21T14:40:48.315305+00:00",
        "meta_object_name": "COSMOS 2251 DEB",
        "meta_object_id": "1993-036APW",
        "meta_epoch": "2025-12-06T05:57:57.623904",
        "meta_mean_motion": 13.80843435,
        "meta_eccentricity": 0.02897209,
        "meta_inclination": 74.0028,
        "meta_ra_of_asc_node": 313.2955,
        "meta_arg_of_pericenter": 164.0681,
        "meta_mean_anomaly": 196.98,
        "meta_ephemeris_type": 0,
        "meta_classification_type": "U",
        "meta_norad_cat_id": 35701,
        "meta_element_set_no": 999,
        "meta_rev_at_epoch": 62069,
        "meta_bstar": 0.0021223911,
        "meta_mean_motion_dot": 3.05e-05,
        "meta_mean_motion_ddot": 0,
        "tle_line1": "1 35701U 93036APW 25340.24858361  .00003050  00000+0  21224-2 0  9998",
        "tle_line2": "2 35701  74.0028 313.2955 0289720 164.0681 196.9800 13.80843435620696"
      },
      "geometry": {
        "type": "Point",
        "coordinates": [
          -66.23359758248431,
          20.932232884173636
        ]
      }
    },
    {
      "type": "Feature",
      "properties": {
        "norad_id": 35703,
        "name": "COSMOS 2251 DEB",
        "group": "cosmos-2251-debris",
        "lat": -59.606536395501834,
        "lon": -4.1932106927993695,
        "alt_km": 644.2871676315881,
        "timestamp": "2025-12-21T14:40:48.315315+00:00",
        "meta_object_name": "COSMOS 2251 DEB",
        "meta_object_id": "1993-036APY",
        "meta_epoch": "2025-12-20T19:38:11.109696",
        "meta_mean_motion": 14.90436618,
        "meta_eccentricity": 0.00644416,
        "meta_inclination": 74.0416,
        "meta_ra_of_asc_node": 26.5948,
        "meta_arg_of_pericenter": 93.839,
        "meta_mean_anomaly": 267.0162,
        "meta_ephemeris_type": 0,
        "meta_classification_type": "U",
        "meta_norad_cat_id": 35703,
        "meta_element_set_no": 999,
        "meta_rev_at_epoch": 66736,
        "meta_bstar": 0.00033647924,
        "meta_mean_motion_dot": 3.374e-05,
        "meta_mean_motion_ddot": 0,
        "tle_line1": "1 35703U 93036APY 25354.81818414  .00003374  00000+0  33648-3 0  9996",
        "tle_line2": "2 35703  74.0416  26.5948 0064441  93.8390 267.0162 14.90436618667361"
      },
      "geometry": {
        "type": "Point",
        "coordinates": [
          -4.1932106927993695,
          -59.606536395501834
        ]
      }
    },
    {
      "type": "Feature",
      "properties": {
        "norad_id": 35705,
        "name": "COSMOS 2251 DEB",
        "group": "cosmos-2251-debris",
        "lat": -42.432644084697834,
        "lon": -46.270867427754084,
        "alt_km": 681.2862123127607,
        "timestamp": "2025-12-21T14:40:48.315325+00:00",
        "meta_object_name": "COSMOS 2251 DEB",
        "meta_object_id": "1993-036AQA",
        "meta_epoch": "2025-12-18T02:30:16.850016",
        "meta_mean_motion": 14.7240967,
        "meta_eccentricity": 0.0033127,
        "meta_inclination": 74.2733,
        "meta_ra_of_asc_node": 125.5265,
        "meta_arg_of_pericenter": 72.0768,
        "meta_mean_anomaly": 288.4013,
        "meta_ephemeris_type": 0,
        "meta_classification_type": "U",
        "meta_norad_cat_id": 35705,
        "meta_element_set_no": 999,
        "meta_rev_at_epoch": 86005,
        "meta_bstar": 0.0020233771,
        "meta_mean_motion_dot": 0.00012927,
        "meta_mean_motion_ddot": 0,
        "tle_line1": "1 35705U 93036AQA 25352.10436169  .00012927  00000+0  20234-2 0  9991",
        "tle_line2": "2 35705  74.2733 125.5265 0033127  72.0768 288.4013 14.72409670860055"
      },
      "geometry": {
        "type": "Point",
        "coordinates": [
          -46.270867427754084,
          -42.432644084697834
        ]
      }
    },
    {
      "type": "Feature",
      "properties": {
        "norad_id": 35706,
        "name": "COSMOS 2251 DEB",
        "group": "cosmos-2251-debris",
        "lat": -33.835186489618195,
        "lon": 36.98284571137084,
        "alt_km": 1182.0932444697264,
        "timestamp": "2025-12-21T14:40:48.315335+00:00",
        "meta_object_name": "COSMOS 2251 DEB",
        "meta_object_id": "1993-036AQB",
        "meta_epoch": "2025-12-18T11:16:36.033600",
        "meta_mean_motion": 13.65935388,
        "meta_eccentricity": 0.03401259,
        "meta_inclination": 73.8894,
        "meta_ra_of_asc_node": 53.3421,
        "meta_arg_of_pericenter": 102.0554,
        "meta_mean_anomaly": 261.8887,
        "meta_ephemeris_type": 0,
        "meta_classification_type": "U",
        "meta_norad_cat_id": 35706,
        "meta_element_set_no": 999,
        "meta_rev_at_epoch": 62140,
        "meta_bstar": 0.00059519362,
        "meta_mean_motion_dot": 7.07e-06,
        "meta_mean_motion_ddot": 0,
        "tle_line1": "1 35706U 93036AQB 25352.46986150  .00000707  00000+0  59519-3 0  9993",
        "tle_line2": "2 35706  73.8894  53.3421 0340125 102.0554 261.8887 13.65935388621406"
      },
      "geometry": {
        "type": "Point",
        "coordinates": [
          36.98284571137084,
          -33.835186489618195
        ]
      }
    }
  ]
}